[{"OBJECT_NAME":"STARLINK-2134","OBJECT_ID":"2021-005BL","EPOCH":"2026-03-09T07:23:52.599552","MEAN_MOTION":15.06400984,"ECCENTRICITY":0.00014021,"INCLINATION":53.0561,"RA_OF_ASC_NODE":33.33,"ARG_OF_PERICENTER":93.3286,"MEAN_ANOMALY":266.7864,"EPHEMERIS_TYPE":0,"CLASSIFICATION_TYPE":"U","NORAD_CAT_ID":47407,"ELEMENT_SET_NO":999,"REV_AT_EPOCH":28340,"BSTAR":2.890276e-6,"MEAN_MOTION_DOT":-2.38e-6,"MEAN_MOTION_DDOT":0},{"OBJECT_NAME":"OBJECT K","OBJECT_ID":"2017-042K","EPOCH":"2026-03-09T21:28:20.621568","MEAN_MOTION":15.07994228,"ECCENTRICITY":0.00097557,"INCLINATION":97.4104,"RA_OF_ASC_NODE":233.8721,"ARG_OF_PERICENTER":49.2775,"MEAN_ANOMALY":310.9299,"EPHEMERIS_TYPE":0,"CLASSIFICATION_TYPE":"U","NORAD_CAT_ID":42834,"ELEMENT_SET_NO":999,"REV_AT_EPOCH":47201,"BSTAR":0.00042776846,"MEAN_MOTION_DOT":6.528e-5,"MEAN_MOTION_DDOT":0}]
